CUTE-1 (CO-55)          
1 27844U 03031E   22170.88845536  .00000219  00000+0  11795-3 0  9998
2 27844  98.6778 178.5382 0011157  94.5916 265.6537 14.22455486984214
CUBESAT XI-IV (CO-57)   
1 27848U 03031J   22170.85219645  .00000183  00000+0  10228-3 0  9995
2 27848  98.6824 179.0216 0010963 107.2600 252.9778 14.22012101984026
CUBESAT XI-V            
1 28895U 05043F   22170.63707060  .00000910  00000+0  18095-3 0  9990
2 28895  98.1071 301.9816 0017735 131.8946 228.3773 14.64349794887739
CUTE-1.7+APD II (CO-65) 
1 32785U 08021C   22170.84857278  .00001669  00000+0  18022-3 0  9994
2 32785  97.6572 141.6210 0011398 220.5847 139.4522 14.89599659766840
AAUSAT-II               
1 32788U 08021F   22170.90988831  .00005024  00000+0  43500-3 0  9992
2 32788  97.5336 156.1370 0013423 110.7931 249.4730 14.97501661768809
DELFI-C3 (DO-64)        
1 32789U 08021G   22170.79622991  .00011785  00000+0  65417-3 0  9994
2 32789  97.3386 197.0098 0008498 325.0608  35.0065 15.13858898772285
SEEDS II (CO-66)        
1 32791U 08021J   22170.45402737  .00002246  00000+0  22286-3 0  9993
2 32791  97.6113 146.7311 0012647 175.9002 184.2323 14.92677444767571
SWISSCUBE               
1 35932U 09051B   22170.84869364  .00000585  00000+0  14138-3 0  9994
2 35932  98.5685  26.8536 0008502  46.6805 313.5100 14.56868276676442
BEESAT-1                
1 35933U 09051C   22170.80372913  .00000505  00000+0  12342-3 0  9997
2 35933  98.5627  28.4356 0006850  59.1291 301.0579 14.56883978676515
ITUPSAT1                
1 35935U 09051E   22170.82259756  .00000450  00000+0  11342-3 0  9998
2 35935  98.5728  28.5103 0009180  60.2994 299.9115 14.55992649676226
TISAT 1                 
1 36799U 10035E   22170.53022586  .00002970  00000+0  29197-3 0  9994
2 36799  98.1824  21.0567 0013345  89.5813 270.6934 14.92901712648071
M-CUBED & EXP-1 PRIME   
1 37855U 11061F   22170.88594131  .00010383  00000+0  45454-3 0  9997
2 37855 101.7093 291.2472 0152934  55.1507 306.3982 15.12437164581600
AEROCUBE 4.5A           
1 38767U 12048K   22170.85957248  .00003010  00000+0  21554-3 0  9999
2 38767  64.6655 103.2896 0176054 261.9138  96.1970 14.94865009151147
AEROCUBE 4.5B           
1 38768U 12048L   22170.86753196  .00003710  00000+0  23955-3 0  9991
2 38768  64.6670  57.7714 0163318 257.2728 101.0091 14.99586036151515
STRAND-1                
1 39090U 13009E   22170.80874432  .00000172  00000+0  75117-4 0  9996
2 39090  98.4046   8.8842 0007793 264.1657  95.8640 14.35294348487735
BRITE-AUSTRIA           
1 39091U 13009F   22170.51466461  .00000126  00000+0  58931-4 0  9998
2 39091  98.4060   7.7666 0009243 272.6593  87.3535 14.35275955487731
SOMP                    
1 39134U 13015E   22170.78792472  .00013199  00000+0  47098-3 0  9991
2 39134  64.8625  54.2313 0034875 279.2263  80.4924 15.28576308507216
BEESAT-3                
1 39135U 13015F   22170.88544358  .00010745  00000+0  44179-3 0  9992
2 39135  64.8663  90.0155 0037847 286.0803  73.6161 15.23918171506487
BEESAT-2                
1 39136U 13015G   22170.80375889  .00010539  00000+0  45335-3 0  9992
2 39136  64.8748  98.4450 0016370 297.8128  62.1341 15.22932998506272
NEE-01 PEGASO           
1 39151U 13018B   22171.14661651  .00001182  00000+0  15945-3 0  9993
2 39151  97.9917 276.7994 0015596 244.1707 115.7897 14.80943996494084
ESTCUBE 1               
1 39161U 13021C   22171.14004835  .00001032  00000+0  16834-3 0  9995
2 39161  97.9094 248.3083 0010589  57.0892 303.1354 14.72957161489869
POPACS 1                
1 39268U 13055D   22170.45954709  .00019622  00000+0  50031-3 0  9998
2 39268  80.9965 237.3372 0572033 194.3692 164.0641 14.50291994453590
POPACS 2                
1 39269U 13055E   22170.60203070  .00007251  00000+0  19956-3 0  9990
2 39269  81.0121 294.0442 0646566 341.5108  16.3512 14.32988442450499
POPACS 3                
1 39270U 13055F   22170.48727063  .00006970  00000+0  20882-3 0  9998
2 39270  81.0144 327.0595 0689774  74.9709 292.6709 14.21950475449627
ZACUBE-1 (TSHEPISOSAT)  
1 39417U 13066B   22170.86494663  .00002226  00000+0  27636-3 0  9996
2 39417  97.6362 142.2527 0058925  38.1047 322.4311 14.82349245463487
WNISAT-1                
1 39423U 13066H   22171.11709160  .00000524  00000+0  11177-3 0  9995
2 39423  97.7533  52.4019 0175258 129.1875 232.5019 14.53486399454837
TRITON-1                
1 39427U 13066M   22171.05927496  .00001037  00000+0  16975-3 0  9997
2 39427  97.8133 106.7413 0110299 256.2892 102.6016 14.68977996459354
DELFI-N3XT              
1 39428U 13066N   22170.77392895  .00001824  00000+0  28798-3 0  9995
2 39428  97.8142 105.0321 0115669 270.6269  88.1685 14.69199567458876
GOMX-1                  
1 39430U 13066Q   22171.19578584  .00001757  00000+0  31983-3 0  9991
2 39430  97.8110  78.2384 0150449  36.6625 324.4765 14.60193953456692
CUBEBUG-2 (LO-74)       
1 39440U 13066AA  22170.82675343  .00001482  00000+0  20639-3 0  9993
2 39440  97.7262 128.2840 0080034 123.0719 237.8210 14.77007784460635
NEE-02 KRYSAOR          
1 39441U 13066AB  22170.83100690  .00000992  00000+0  14445-3 0  9996
2 39441  97.7373 125.4730 0081598 136.4825 224.2863 14.75743477460388
FUNCUBE-1 (AO-73)       
1 39444U 13066AE  22170.87989284  .00002685  00000+0  32390-3 0  9997
2 39444  97.6241 144.6724 0057478  26.5147 333.8988 14.83435058461889
UWE-3                   
1 39446U 13066AG  22170.64167946  .00001884  00000+0  24806-3 0  9990
2 39446  97.6855 134.6103 0070373  82.3152 278.6044 14.79567353460783
AEROCUBE 5A             
1 39465U 13072D   22170.85665689  .00027431  00000+0  16345-2 0  9992
2 39465 120.4875 321.4580 0196657 281.4572  76.4466 14.96308657149985
AEROCUBE 5B             
1 39466U 13072E   22170.91312516  .00067695  00000+0  25599-2 0  9995
2 39466 120.4597  48.2088 0144700 304.7915  53.9615 15.17171564151108
BRITE-CA1 (TORONTO)     
1 40020U 14033L   22171.00909714  .00000513  00000+0  95213-4 0  9992
2 40020  97.7788 329.8385 0085450 255.0770 104.0962 14.67041769428146
DUCHIFAT-1              
1 40021U 14033M   22170.88719263  .00003755  00000+0  36736-3 0  9991
2 40021  98.0127 121.1318 0013739  39.1717 321.0494 14.92885939435063
NANOSATC-BR1            
1 40024U 14033Q   22170.69285004  .00002484  00000+0  25225-3 0  9993
2 40024  97.9855 114.2922 0013155  45.1797 315.0488 14.91728148434313
QB50P1                  
1 40025U 14033R   22170.87535763  .00001916  00000+0  20181-3 0  9999
2 40025  97.9602 108.2931 0013573  53.5764 306.6703 14.90507842434128
QB50P2                  
1 40032U 14033Y   22170.83462080  .00002395  00000+0  25437-3 0  9995
2 40032  97.9378 103.6243 0012999  51.9374 308.3014 14.89935362433977
PERSEUS-M2              
1 40037U 14033AD  22170.72885264  .00000873  00000+0  10320-3 0  9995
2 40037  97.8968  92.9380 0015755  72.2176 288.0757 14.87104580433467
PERSEUS-M1              
1 40039U 14033AF  22170.72421870  .00000861  00000+0  10280-3 0  9998
2 40039  97.8871  90.6926 0015595  71.4340 288.8568 14.86714150433343
POLYITAN-1              
1 40042U 14033AJ  22170.88962729  .00002716  00000+0  28332-3 0  9990
2 40042  97.9706 109.5008 0015634  45.5359 314.7134 14.90528652434010
TIGRISAT                
1 40043U 14033AK  22170.87359315  .00001106  00000+0  16686-3 0  9992
2 40043  97.6563   0.0034 0060053 147.4480 213.0456 14.75012973429980
AEROCUBE 6A             
1 40045U 14033AM  22170.84089592  .00001235  00000+0  17996-3 0  9996
2 40045  97.6667   8.7454 0057928 135.4486 225.1403 14.76399258430138
AEROCUBE 6B             
1 40046U 14033AN  22170.81752553  .00002051  00000+0  29208-3 0  9994
2 40046  97.6582   7.1862 0056990 133.8705 226.7235 14.76729178430133
UKUBE-1                 
1 40074U 14037F   22171.11337468  .00002002  00000+0  23931-3 0  9990
2 40074  98.3817  51.9222 0003299 293.3749  66.7129 14.85412342430466
BRITE-PL2 (HEWELIUSZ)   
1 40119U 14049B   22170.83668470  .00000997  00000+0  12265-3 0  9990
2 40119  97.8839 266.4369 0016143 231.2832 128.6940 14.85133757424366
FIREBIRD 4              
1 40378U 15003C   22170.87750661  .00017607  00000+0  52307-3 0  9993
2 40378  99.1008  36.5389 0100532  17.4815 342.9840 15.29927252408794
GRIFEX                  
1 40379U 15003D   22171.08006002  .00010946  00000+0  38567-3 0  9992
2 40379  99.1120  22.6799 0116496  58.7919 302.4668 15.23232888408034
CP10 (EXOCUBE)          
1 40380U 15003E   22170.52924030  .00008555  00000+0  32772-3 0  9997
2 40380  99.1209  14.8383 0124598  84.3577 277.1845 15.19852928407473
TIANWANG 1A (TW-1A)     
1 40928U 15051D   22171.04539571  .00044483  00000+0  54959-3 0  9999
2 40928  97.0375 193.6730 0007711  37.1480  15.2972 15.59983129378640
EXACTVIEW 9             
1 40936U 15052G   22170.26850237  .00001592  00000+0  13116-3 0  9991
2 40936   6.0021 160.5957 0010437 185.8819 174.1186 14.77160009363488
AEROCUBE 5C             
1 40965U 15058B   22170.89020842  .00000869  00000+0  11251-3 0  9993
2 40965  64.7778  83.9585 0192720 199.5153 159.8506 14.75611679149327
AEROCUBE 7              
1 40966U 15058C   22170.88784074  .00001144  00000+0  14099-3 0  9997
2 40966  64.7777  81.1563 0190776 199.1751 160.2109 14.76161190149326
ATHENOXAT 1             
1 41168U 15077C   22171.10032443  .00014037  00000+0  57819-3 0  9997
2 41168  14.9856  70.7924 0009652 281.6558 114.6305 15.21058655360716
GALASSIA                
1 41170U 15077E   22170.88662721  .00010588  00000+0  43689-3 0  9999
2 41170  14.9890  63.2080 0011117 302.7555  57.1696 15.20390906360595
VELOX-II                
1 41171U 15077F   22170.55683148  .00007600  00000+0  34994-3 0  9990
2 41171  14.9905 138.9915 0007779 138.7219 221.3691 15.15805431359937
HORYU-4                 
1 41340U 16012D   22170.82888492  .00003346  00000+0  23398-3 0  9996
2 41340  31.0055 343.9574 0013233 224.6179 135.3392 15.03339271348089
